*******************************************************************************
 Revised: Jan 23, 2020              Titan / (Saturn)                        606
                         http://ssd.jpl.nasa.gov/?sat_phys_par
                           http://ssd.jpl.nasa.gov/?sat_elem

 SATELLITE PHYSICAL PROPERTIES:
  Mean Radius (km)       = 2575.5   +-  2.0  Density (g/cm^3) =  1.880 +- 0.004
  Mass (10^19 kg)        = 13455.3           Geometric Albedo =  0.2 
  GM (km^3/s^2)          = 8978.14  +-  0.06  V(1,0)          = -1.2 

 SATELLITE ORBITAL DATA:
  Semi-major axis, a (km)= 1221.87 (10^3)  Orbital period     = 15.945421 d
  Eccentricity, e        = 0.0288          Rotational period  = 
  Inclination, i  (deg)  = 0.28
*******************************************************************************
 
 
*******************************************************************************
Ephemeris / WWW_USER Fri Jun 19 18:23:41 2020 Pasadena, USA      / Horizons
*******************************************************************************
Target body name: Titan (606)                     {source: sat427l_merged_DE438}
Center body name: Solar System Barycenter (0)     {source: DE431mx}
Center-site name: BODY CENTER
*******************************************************************************
Start time      : A.D. 1969-Jun-28 00:00:00.0000 TDB
Stop  time      : A.D. 2071-May-04 00:00:00.0000 TDB
Step-size       : 7200 minutes
*******************************************************************************
Center geodetic : 0.00000000,0.00000000,0.0000000 {E-lon(deg),Lat(deg),Alt(km)}
Center cylindric: 0.00000000,0.00000000,0.0000000 {E-lon(deg),Dxy(km),Dz(km)}
Center radii    : (undefined)                                                  
Output units    : AU-D
Output type     : GEOMETRIC cartesian states
Output format   : 2 (position and velocity)
Reference frame : Ecliptic of J2000.0
*******************************************************************************
            JDTDB,            Calendar Date (TDB),        delta-T,                      X,                      Y,                      Z,                     VX,                     VY,                     VZ,
******************************************************************************************************************************************************************************************************************
$$SOE
2453525.500000000, A.D. 2005-Jun-04 00:00:00.0000,      64.184808, -4.406424288888912E+00,  7.933332147560015E+00,  3.940853242524230E-02, -3.568650748280534E-03, -5.199405478179387E-03,  1.374569678769257E-03,
2453530.500000000, A.D. 2005-Jun-09 00:00:00.0000,      64.184684, -4.418669809863361E+00,  7.918646016667755E+00,  3.987320984677136E-02, -3.255337682598681E-03, -4.158383610897930E-04, -1.131873733980773E-03,
2453535.500000000, A.D. 2005-Jun-14 00:00:00.0000,      64.184555, -4.449618742985549E+00,  7.916486915405587E+00,  3.568872355024502E-02, -8.291424218068973E-03, -2.099239162239200E-03,  2.277491166935114E-04,
2453540.500000000, A.D. 2005-Jun-19 00:00:00.0000,      64.184421, -4.484907140222922E+00,  7.894724225650060E+00,  4.201191318484734E-02, -4.618752020082184E-03, -5.536419207022568E-03,  1.630488800708939E-03,
2453545.500000000, A.D. 2005-Jun-24 00:00:00.0000,      64.184282, -4.498239676580041E+00,  7.875481647625935E+00,  4.482575594604910E-02, -2.377156365128830E-03, -1.314591132701459E-03, -7.769082914931151E-04,
2453550.500000000, A.D. 2005-Jun-29 00:00:00.0000,      64.184142, -4.524009421563515E+00,  7.873810560684318E+00,  3.976787455054895E-02, -7.865898129587750E-03, -1.166026185941334E-03, -3.176332570695408E-04,
2453555.500000000, A.D. 2005-Jul-04 00:00:00.0000,      64.184003, -4.561938868533966E+00,  7.855518558057515E+00,  4.445300410265262E-02, -5.719009410153738E-03, -5.516444063607248E-03,  1.707354745318541E-03,
2453560.500000000, A.D. 2005-Jul-09 00:00:00.0000,      64.183864, -4.578023057695360E+00,  7.832526809280615E+00,  4.936510025453356E-02, -1.916551363339688E-03, -2.410789777698432E-03, -2.785762402206014E-04,
2453565.500000000, A.D. 2005-Jul-14 00:00:00.0000,      64.183726, -4.598567169560547E+00,  7.829590230903738E+00,  4.433475565127529E-02, -7.041427362736328E-03, -4.319937252135440E-04, -7.995736643959967E-04,
2453570.500000000, A.D. 2005-Jul-19 00:00:00.0000,      64.183588, -4.637528159372082E+00,  7.815386790933574E+00,  4.690455599461085E-02, -6.737049768726284E-03, -5.154947684257213E-03,  1.600046517460589E-03,
2453575.500000000, A.D. 2005-Jul-24 00:00:00.0000,      64.183452, -4.657589547691870E+00,  7.789894539348023E+00,  5.339282623687507E-02, -1.920194291976370E-03, -3.538049685678288E-03,  2.819052575310774E-04,
2453580.500000000, A.D. 2005-Jul-29 00:00:00.0000,      64.183321, -4.673622360023874E+00,  7.784081882069777E+00,  4.929255150619806E-02, -5.913464035307364E-03, -2.594675809396930E-05, -1.142163086612332E-03,
2453585.500000000, A.D. 2005-Aug-03 00:00:00.0000,      64.183196, -4.711804303795422E+00,  7.774030873734953E+00,  4.953569431115130E-02, -7.551486214900492E-03, -4.499759310193936E-03,  1.321226047921045E-03,
2453590.500000000, A.D. 2005-Aug-08 00:00:00.0000,      64.183077, -4.736502188464348E+00,  7.747543334372525E+00,  5.688965069121425E-02, -2.357767498351018E-03, -4.540966231050369E-03,  8.213572060658226E-04,
2453595.500000000, A.D. 2005-Aug-13 00:00:00.0000,      64.182965, -4.749384889614738E+00,  7.737645664446562E+00,  5.447878606731237E-02, -4.639683491193368E-03, -3.444756962150977E-05, -1.285131806520517E-03,
2453600.500000000, A.D. 2005-Aug-18 00:00:00.0000,      64.182858, -4.785003779618922E+00,  7.731212115037388E+00,  5.249553363551046E-02, -8.058388420093128E-03, -3.628269944902233E-03,  9.005304556908583E-04,
2453605.500000000, A.D. 2005-Aug-23 00:00:00.0000,      64.182758, -4.814382000240753E+00,  7.705299855508743E+00,  5.991003347482442E-02, -3.141203849181877E-03, -5.298813846482463E-03,  1.268775657986777E-03,
2453610.500000000, A.D. 2005-Aug-28 00:00:00.0000,      64.182668, -4.825894770322642E+00,  7.690692736647468E+00,  5.968784696344991E-02, -3.416000616604063E-03, -4.754096571213177E-04, -1.199839473511098E-03,
2453615.500000000, A.D. 2005-Sep-02 00:00:00.0000,      64.182590, -4.857449862272529E+00,  7.686778116379697E+00,  5.589726984573867E-02, -8.179681864354582E-03, -2.645398511957953E-03,  3.843610830563943E-04,
2453620.500000000, A.D. 2005-Sep-07 00:00:00.0000,      64.182522, -4.890950923535510E+00,  7.662897224343406E+00,  6.256669658685170E-02, -4.148905666883259E-03, -5.735008913526747E-03,  1.572608807412307E-03,
2453625.500000000, A.D. 2005-Sep-12 00:00:00.0000,      64.182464, -4.903004549145869E+00,  7.643613611183049E+00,  6.470621053095862E-02, -2.435315364077815E-03, -1.287208563907465E-03, -8.989817006930923E-04,
2453630.500000000, A.D. 2005-Sep-17 00:00:00.0000,      64.182415, -4.929522860182911E+00,  7.640687325411772E+00,  5.980256839365569E-02, -7.875036357427987E-03, -1.679437827431775E-03, -1.650795318861700E-04,
2453635.500000000, A.D. 2005-Sep-22 00:00:00.0000,      64.182378, -4.966053398229283E+00,  7.620017139973419E+00,  6.501105234386560E-02, -5.246088652973122E-03, -5.816416084059875E-03,  1.702419398381763E-03,
2453640.500000000, A.D. 2005-Sep-27 00:00:00.0000,      64.182354, -4.980403474116415E+00,  7.596707175843057E+00,  6.935150749261820E-02, -1.843529050369535E-03, -2.341502988284683E-03, -4.343256582255364E-04,
2453645.500000000, A.D. 2005-Oct-02 00:00:00.0000,      64.182343, -5.001617682806206E+00,  7.593026984354442E+00,  6.420815115957490E-02, -7.156352455797228E-03, -8.718864979688796E-04, -6.736034526258563E-04,
2453650.500000000, A.D. 2005-Oct-07 00:00:00.0000,      64.182344, -5.039661929736592E+00,  7.576328778037155E+00,  6.741371011867357E-02, -6.298506860950932E-03, -5.548352300656522E-03,  1.647660912673250E-03,
2453655.500000000, A.D. 2005-Oct-12 00:00:00.0000,      64.182357, -5.057677372763408E+00,  7.550131734465781E+00,  7.350371406928483E-02, -1.710919544372113E-03, -3.475017966009996E-03,  1.168491319103296E-04,
2453660.500000000, A.D. 2005-Oct-17 00:00:00.0000,      64.182381, -5.074088466940161E+00,  7.544017377109519E+00,  6.903811645553944E-02, -6.099699361540611E-03, -3.582273461485653E-04, -1.063769367347506E-03,
2453665.500000000, A.D. 2005-Oct-22 00:00:00.0000,      64.182416, -5.111872365654112E+00,  7.531522607410377E+00,  6.994657169126005E-02, -7.180963195850822E-03, -4.969617891560438E-03,  1.415957330916003E-03,
2453670.500000000, A.D. 2005-Oct-27 00:00:00.0000,      64.182464, -5.134384208499777E+00,  7.503889367325648E+00,  7.712069784252835E-02, -2.027865779703083E-03, -4.526183701046981E-03,  6.702264829126981E-04,
2453675.500000000, A.D. 2005-Nov-01 00:00:00.0000,      64.182526, -5.147186201778926E+00,  7.493993310911685E+00,  7.414727743095245E-02, -4.846408876389901E-03, -2.402877029143921E-04, -1.269043568217081E-03,
2453680.500000000, A.D. 2005-Nov-06 00:00:00.0000,      64.182599, -5.182892265113383E+00,  7.485340227471453E+00,  7.276621849264196E-02, -7.783712126429637E-03, -4.149233703012412E-03,  1.032050931910673E-03,
2453685.500000000, A.D. 2005-Nov-11 00:00:00.0000,      64.182681, -5.210123217911388E+00,  7.457841582853248E+00,  8.023692542432874E-02, -2.720491679284828E-03, -5.362778752654602E-03,  1.150270194020681E-03,
2453690.500000000, A.D. 2005-Nov-16 00:00:00.0000,      64.182772, -5.221003645574307E+00,  7.443358468763492E+00,  7.933923820497080E-02, -3.585092014096915E-03, -5.577671043169196E-04, -1.250262624044959E-03,
2453695.500000000, A.D. 2005-Nov-21 00:00:00.0000,      64.182872, -5.253022682713061E+00,  7.437601930406095E+00,  7.599789597884408E-02, -8.020094606769579E-03, -3.184438621802923E-03,  5.375312915493093E-04,
